NORAD_CAT_ID,OBJECT_NAME,OBJECT_TYPE,EPOCH,MEAN_MOTION,ECCENTRICITY,INCLINATION,RA_OF_ASC_NODE,ARG_OF_PERICENTER,MEAN_ANOMALY,BSTAR,MEAN_MOTION_DOT,MEAN_MOTION_DDOT,TLE_LINE0,TLE_LINE1,TLE_LINE2,SEMIMAJOR_AXIS,PERIOD,APOGEE,PERIGEE,DECAYED
52485.0,STARLINK-3913,PAYLOAD,2022-05-22 22:00:01,15.73139375,0.0002033,53.2153,184.5682,19.1318,341.4683,0.00076336,0.00107618,0.0,0 STARLINK-3913,1 52485U 22049AL  22142.91668981  .00107618  00000-0  76336-3 0  9991,2 52485  53.2153 184.5682 0002033  19.1318 341.4683 15.73139375  2779,6728.068,91.537,351.301,348.565,0.0
52485.0,STARLINK-3913,PAYLOAD,2022-05-23 14:00:01,15.73432939,0.0002334,53.2161,181.2736,26.5766,151.7878,-0.0041431,-0.00551191,0.0,0 STARLINK-3913,1 52485U 22049AL  22143.58334491 -.00551191  00000-0 -41431-2 0  9999,2 52485  53.2161 181.2736 0002334  26.5766 151.7878 15.73432939  1303,6727.231,91.52,350.666,347.526,0.0
52485.0,STARLINK-3913,PAYLOAD,2022-05-23 16:00:00,15.73264692,0.0002388,53.2146,180.8582,21.9262,268.7184,-0.00033974,-0.00048169,0.0,0 STARLINK-3913,1 52485U 22049AL  22143.66667824 -.00048169  00000-0 -33974-3 0  9997,2 52485  53.2146 180.8582 0002388  21.9262 268.7184 15.73264692  2881,6727.7109999999975,91.529,351.182,347.969,0.0
52485.0,STARLINK-3913,PAYLOAD,2022-05-23 22:00:01,15.73209079,0.0002174,53.2148,179.6195,24.8572,242.6066,0.0002074,0.00028598,0.0,0 STARLINK-3913,1 52485U 22049AL  22143.91668981  .00028598  00000-0  20740-3 0  9999,2 52485  53.2148 179.6195 0002174  24.8572 242.6066 15.73209079  1302,6727.869000000002,91.533,351.19699999999995,348.272,0.0
52485.0,STARLINK-3913,PAYLOAD,2022-05-24 12:06:54,15.73174644,0.0002572,53.215,176.7084,24.9151,335.1993,-0.00020637,-0.00029457,0.0,0 STARLINK-3913,1 52485U 22049AL  22144.50479960 -.00029457  00000-0 -20637-3 0  9994,2 52485  53.2150 176.7084 0002572  24.9151 335.1993 15.73174644  3023,6727.967,91.535,351.56300000000016,348.102,0.0
52485.0,STARLINK-3913,PAYLOAD,2022-05-24 13:38:23,15.73202033,0.0002662,53.2151,176.3945,23.4578,336.6563,-7.545e-05,-0.000112,0.0,0 STARLINK-3913,1 52485U 22049AL  22144.56832307 -.00011200  00000-0 -75450-4 0  9999,2 52485  53.2151 176.3945 0002662  23.4578 336.6563 15.73202033  2878,6727.889,91.533,351.545,347.963,0.0
52485.0,STARLINK-3913,PAYLOAD,2022-05-24 22:00:00,15.73101371,0.0002127,53.2152,174.671,16.785999999999998,157.3759,0.00059169,0.00082895,0.0,0 STARLINK-3913,1 52485U 22049AL  22144.91667824  .00082895  00000-0  59169-3 0  9992,2 52485  53.2152 174.6710 0002127  16.7860 157.3759 15.73101371  3087,6728.176,91.539,351.472,348.61,0.0
52485.0,STARLINK-3913,PAYLOAD,2022-05-25 12:00:00,15.73157839,0.0002474,53.215,171.7869,18.9861,220.69,0.00073757,0.00104003,0.0,0 STARLINK-3913,1 52485U 22049AL  22145.50001157  .00104003  00000-0  73757-3 0  9994,2 52485  53.2150 171.7869 0002474  18.9861 220.6900 15.73157839  3170,6728.015,91.536,351.545,348.216,0.0
52485.0,STARLINK-3913,PAYLOAD,2022-05-25 14:00:01,15.73182545,0.0002472,53.2145,171.3744,18.4187,333.4784,0.00057981,0.00081491,0.0,0 STARLINK-3913,1 52485U 22049AL  22145.58334491  .00081491  00000-0  57981-3 0  9998,2 52485  53.2145 171.3744 0002472  18.4187 333.4784 15.73182545  1304,6727.945,91.534,351.473,348.147,0.0
52485.0,STARLINK-3913,PAYLOAD,2022-05-25 22:00:00,15.73237463,0.0002195,53.2145,169.7227,23.2926,57.5586,0.00029625,0.0004123,0.0,0 STARLINK-3913,1 52485U 22049AL  22145.91667824  .00041230  00000-0  29625-3 0  9995,2 52485  53.2145 169.7227 0002195  23.2926  57.5586 15.73237463  1302,6727.788000000001,91.531,351.13,348.177,0.0
52485.0,STARLINK-3913,PAYLOAD,2022-05-26 06:00:00,15.73273831,0.000232,53.2147,168.0743,24.8407,145.0082,-0.00054118,-0.00076139,0.0,0 STARLINK-3913,1 52485U 22049AL  22146.25001157 -.00076139  00000-0 -54118-3 0  9997,2 52485  53.2147 168.0743 0002320  24.8407 145.0082 15.73273831  3293,6727.685,91.529,351.111,347.98900000000015,0.0
52485.0,STARLINK-3913,PAYLOAD,2022-05-26 12:54:15,15.73317971,0.0001739,53.2147,166.6486,41.8399,318.2754,0.00044388,0.00062458,0.0,0 STARLINK-3913,1 52485U 22049AL  22146.53767996  .00062458  00000-0  44388-3 0  9993,2 52485  53.2147 166.6486 0001739  41.8399 318.2754 15.73317971  3343,6727.559,91.526,350.594,348.254,0.0
52485.0,STARLINK-3913,PAYLOAD,2022-05-26 14:00:01,15.73208459,0.0002381,53.2144,166.4254,19.2473,239.5753,5.2139e-05,6.705e-05,0.0,0 STARLINK-3913,1 52485U 22049AL  22146.58334491  .00006705  00000-0  52139-4 0  9995,2 52485  53.2144 166.4254 0002381  19.2473 239.5753 15.73208459  1305,6727.871,91.533,351.338,348.134,0.0
52485.0,STARLINK-3913,PAYLOAD,2022-05-26 20:00:01,15.73190705,0.0002236,53.2149,165.1865,20.0494,215.4864,1.8063e-06,-3.68e-06,0.0,0 STARLINK-3913,1 52485U 22049AL  22146.83334491 -.00000368  00000-0  18063-5 0  9992,2 52485  53.2149 165.1865 0002236  20.0494 215.4864 15.73190705  3386,6727.922,91.534,351.291,348.282,0.0
52485.0,STARLINK-3913,PAYLOAD,2022-05-26 22:00:00,15.73156959,0.0002195,53.2147,164.7737,20.9833,326.7942,0.00049116,0.00068753,0.0,0 STARLINK-3913,1 52485U 22049AL  22146.91667824  .00068753  00000-0  49116-3 0  9992,2 52485  53.2147 164.7737 0002195  20.9833 326.7942 15.73156959  1303,6728.018,91.536,351.36,348.406,0.0
52485.0,STARLINK-3913,PAYLOAD,2022-05-27 14:00:01,15.7316222,0.0002549,53.2139,161.4767,25.7899,139.7812,0.00031835,0.00044225,0.0,0 STARLINK-3913,1 52485U 22049AL  22147.58334491  .00044225  00000-0  31835-3 0  9994,2 52485  53.2139 161.4767 0002549  25.7899 139.7812 15.73162220  1305,6728.003000000002,91.535,351.583,348.153,0.0
52485.0,STARLINK-3913,PAYLOAD,2022-05-27 22:00:01,15.73184576,0.0002228,53.2139,159.825,28.0098,226.5426,0.00051398,0.00072091,0.0,0 STARLINK-3913,1 52485U 22049AL  22147.91668981  .00072091  00000-0  51398-3 0  9993,2 52485  53.2139 159.8250 0002228  28.0098 226.5426 15.73184576  3557,6727.939,91.534,351.30300000000005,348.305,0.0
52485.0,STARLINK-3913,PAYLOAD,2022-05-28 14:00:01,15.73259064,0.0002359,53.2145,156.528,18.609,53.8321,-0.00026503,-0.0003775,0.0,0 STARLINK-3913,1 52485U 22049AL  22148.58334491 -.00037750  00000-0 -26503-3 0  9998,2 52485  53.2145 156.5280 0002359  18.6090  53.8321 15.73259064  3665,6727.727,91.53,351.17900000000014,348.005,0.0
52485.0,STARLINK-3913,PAYLOAD,2022-05-28 22:00:00,15.73222308,0.0002117,53.2142,154.8759,21.914,139.507,-5.5472e-05,-8.407e-05,0.0,0 STARLINK-3913,1 52485U 22049AL  22148.91667824 -.00008407  00000-0 -55472-4 0  9999,2 52485  53.2142 154.8759 0002117  21.9140 139.5070 15.73222308  1302,6727.831999999999,91.532,351.121,348.272,0.0
52485.0,STARLINK-3913,PAYLOAD,2022-05-29 14:00:01,15.73193157,0.000238,53.2137,151.5786,20.7124,318.53,-0.00076329,-0.00106387,0.0,0 STARLINK-3913,1 52485U 22049AL  22149.58334491 -.00106387  00000-0 -76329-3 0  9993,2 52485  53.2137 151.5786 0002380  20.7124 318.5300 15.73193157  3824,6727.915,91.534,351.381,348.17800000000005,0.0
52485.0,STARLINK-3913,PAYLOAD,2022-05-29 22:00:00,15.73071586,0.0002025,53.2139,149.9273,24.3642,43.7728,0.0005176,0.00072252,0.0,0 STARLINK-3913,1 52485U 22049AL  22149.91667824  .00072252  00000-0  51760-3 0  9992,2 52485  53.2139 149.9273 0002025  24.3642  43.7728 15.73071586  1302,6728.261,91.541,351.48900000000015,348.764,0.0
52485.0,STARLINK-3913,PAYLOAD,2022-05-30 06:00:00,15.73132467,0.0002199,53.214,148.2799,19.2875,137.6372,0.00064048,0.00089978,0.0,0 STARLINK-3913,1 52485U 22049AL  22150.25001157  .00089978  00000-0  64048-3 0  9998,2 52485  53.2140 148.2799 0002199  19.2875 137.6372 15.73132467  3926,6728.0880000000025,91.537,351.432,348.473,0.0
52485.0,STARLINK-3913,PAYLOAD,2022-05-30 14:00:01,15.73215622,0.0002218,53.214,146.6303,16.0179,229.7868,0.0001649,0.00022601,0.0,0 STARLINK-3913,1 52485U 22049AL  22150.58334491  .00022601  00000-0  16490-3 0  9992,2 52485  53.2140 146.6303 0002218  16.0179 229.7868 15.73215622  1301,6727.851,91.532,351.208,348.223,0.0
52485.0,STARLINK-3913,PAYLOAD,2022-05-30 22:00:00,15.732271,0.0002026,53.2145,144.9787,18.3411,316.4188,0.00043807,0.00061385,0.0,0 STARLINK-3913,1 52485U 22049AL  22150.91667824  .00061385  00000-0  43807-3 0  9992,2 52485  53.2145 144.9787 0002026  18.3411 316.4188 15.73227100  4030,6727.818,91.532,351.046,348.32,0.0
52485.0,STARLINK-3913,PAYLOAD,2022-05-31 02:40:53,15.73202637,0.0002261,53.2147,144.0136,16.4825,343.6268,0.00017486,0.00023994,0.0,0 STARLINK-3913,1 52485U 22049AL  22151.11173458  .00023994  00000-0  17486-3 0  9998,2 52485  53.2147 144.0136 0002261  16.4825 343.6268 15.73202637  4062,6727.888000000001,91.533,351.274,348.231,0.0
52485.0,STARLINK-3913,PAYLOAD,2022-05-31 06:00:02,15.73248175,0.0002242,53.2152,143.3319,16.0105,47.8102,-0.000136,-0.00019705,0.0,0 STARLINK-3913,1 52485U 22049AL  22151.25002315 -.00019705  00000-0 -13600-3 0  9997,2 52485  53.2152 143.3319 0002242  16.0105  47.8102 15.73248175  1300,6727.7580000000025,91.53,351.131,348.11400000000015,0.0
52485.0,STARLINK-3913,PAYLOAD,2022-05-31 14:00:01,15.73275719,0.0002224,53.2142,141.6811,16.5215,136.1773,-0.00035839,-0.00050785,0.0,0 STARLINK-3913,1 52485U 22049AL  22151.58334491 -.00050785  00000-0 -35839-3 0  9997,2 52485  53.2142 141.6811 0002224  16.5215 136.1773 15.73275719  4138,6727.679,91.529,351.041,348.048,0.0
52485.0,STARLINK-3913,PAYLOAD,2022-05-31 22:00:00,15.73201035,0.0002021,53.2145,140.03,22.6399,219.064,0.00051019,0.000716,0.0,0 STARLINK-3913,1 52485U 22049AL  22151.91667824  .00071600  00000-0  51019-3 0  9998,2 52485  53.2145 140.0300 0002021  22.6399 219.0640 15.73201035  1303,6727.892,91.533,351.117,348.398,0.0
52485.0,STARLINK-3913,PAYLOAD,2022-06-01 06:00:00,15.73279007,0.0002188,53.2146,138.3825,20.1451,310.5128,-0.0005612999999999,-0.00078936,0.0,0 STARLINK-3913,1 52485U 22049AL  22152.25001157 -.00078936  00000-0 -56130-3 0  9997,2 52485  53.2146 138.3825 0002188  20.1451 310.5128 15.73279007  4239,6727.67,91.529,351.00699999999995,348.06300000000016,0.0
